<?xml version="1.0" encoding="UTF-8"?>
<gpx version="1.1" creator="SVGmap" xmlns="http://www.topografix.com/GPX/1/1">
  <metadata>
    <name>Brooklyn Bridge Loop</name>
    <desc>City Hall, over the Brooklyn Bridge and back over the Manhattan Bridge.</desc>
    <copyright author="OpenStreetMap contributors">
      <license>https://opendatacommons.org/licenses/odbl/</license>
    </copyright>
  </metadata>
  <trk>
    <name>Brooklyn Bridge Loop</name>
    <trkseg>
      <trkpt lat="40.713040" lon="-74.005786"/>
      <trkpt lat="40.713089" lon="-74.005748"/>
      <trkpt lat="40.713053" lon="-74.005671"/>
      <trkpt lat="40.713048" lon="-74.005656"/>
      <trkpt lat="40.713046" lon="-74.005643"/>
      <trkpt lat="40.713047" lon="-74.005547"/>
      <trkpt lat="40.713046" lon="-74.005516"/>
      <trkpt lat="40.713040" lon="-74.005485"/>
      <trkpt lat="40.713027" lon="-74.005452"/>
      <trkpt lat="40.712955" lon="-74.005302"/>
      <trkpt lat="40.712906" lon="-74.005199"/>
      <trkpt lat="40.712763" lon="-74.004913"/>
      <trkpt lat="40.712738" lon="-74.004898"/>
      <trkpt lat="40.712724" lon="-74.004893"/>
      <trkpt lat="40.712710" lon="-74.004893"/>
      <trkpt lat="40.712589" lon="-74.004901"/>
      <trkpt lat="40.712576" lon="-74.004899"/>
      <trkpt lat="40.712564" lon="-74.004892"/>
      <trkpt lat="40.712548" lon="-74.004873"/>
      <trkpt lat="40.712524" lon="-74.004908"/>
      <trkpt lat="40.712504" lon="-74.004882"/>
      <trkpt lat="40.712476" lon="-74.004847"/>
      <trkpt lat="40.712442" lon="-74.004805"/>
      <trkpt lat="40.712427" lon="-74.004786"/>
      <trkpt lat="40.712420" lon="-74.004787"/>
      <trkpt lat="40.712404" lon="-74.004785"/>
      <trkpt lat="40.712390" lon="-74.004776"/>
      <trkpt lat="40.712371" lon="-74.004757"/>
      <trkpt lat="40.712114" lon="-74.004431"/>
      <trkpt lat="40.711905" lon="-74.004168"/>
      <trkpt lat="40.711737" lon="-74.003956"/>
      <trkpt lat="40.711684" lon="-74.003891"/>
      <trkpt lat="40.711597" lon="-74.003802"/>
      <trkpt lat="40.711530" lon="-74.003696"/>
      <trkpt lat="40.709724" lon="-74.001437"/>
      <trkpt lat="40.709609" lon="-74.001294"/>
      <trkpt lat="40.709352" lon="-74.000954"/>
      <trkpt lat="40.709125" lon="-74.000660"/>
      <trkpt lat="40.708516" lon="-73.999893"/>
      <trkpt lat="40.708174" lon="-73.999475"/>
      <trkpt lat="40.707493" lon="-73.998633"/>
      <trkpt lat="40.707367" lon="-73.998459"/>
      <trkpt lat="40.707355" lon="-73.998392"/>
      <trkpt lat="40.707346" lon="-73.998371"/>
      <trkpt lat="40.707238" lon="-73.998234"/>
      <trkpt lat="40.707222" lon="-73.998227"/>
      <trkpt lat="40.707174" lon="-73.998218"/>
      <trkpt lat="40.706794" lon="-73.997749"/>
      <trkpt lat="40.706205" lon="-73.997003"/>
      <trkpt lat="40.705709" lon="-73.996376"/>
      <trkpt lat="40.705214" lon="-73.995759"/>
      <trkpt lat="40.705117" lon="-73.995637"/>
      <trkpt lat="40.704922" lon="-73.995394"/>
      <trkpt lat="40.704667" lon="-73.995075"/>
      <trkpt lat="40.704271" lon="-73.994563"/>
      <trkpt lat="40.704209" lon="-73.994485"/>
      <trkpt lat="40.704150" lon="-73.994466"/>
      <trkpt lat="40.704133" lon="-73.994456"/>
      <trkpt lat="40.704025" lon="-73.994320"/>
      <trkpt lat="40.704016" lon="-73.994297"/>
      <trkpt lat="40.704000" lon="-73.994222"/>
      <trkpt lat="40.702262" lon="-73.992048"/>
      <trkpt lat="40.701762" lon="-73.991408"/>
      <trkpt lat="40.701608" lon="-73.991222"/>
      <trkpt lat="40.701313" lon="-73.990847"/>
      <trkpt lat="40.701143" lon="-73.990638"/>
      <trkpt lat="40.701123" lon="-73.990611"/>
      <trkpt lat="40.701096" lon="-73.990552"/>
      <trkpt lat="40.701073" lon="-73.990515"/>
      <trkpt lat="40.700841" lon="-73.990222"/>
      <trkpt lat="40.700668" lon="-73.989992"/>
      <trkpt lat="40.700655" lon="-73.989975"/>
      <trkpt lat="40.700634" lon="-73.989944"/>
      <trkpt lat="40.700625" lon="-73.989931"/>
      <trkpt lat="40.700606" lon="-73.989904"/>
      <trkpt lat="40.700596" lon="-73.989889"/>
      <trkpt lat="40.700583" lon="-73.989869"/>
      <trkpt lat="40.700574" lon="-73.989856"/>
      <trkpt lat="40.700568" lon="-73.989848"/>
      <trkpt lat="40.700562" lon="-73.989838"/>
      <trkpt lat="40.700680" lon="-73.989832"/>
      <trkpt lat="40.700683" lon="-73.989826"/>
      <trkpt lat="40.700680" lon="-73.989775"/>
      <trkpt lat="40.700678" lon="-73.989736"/>
      <trkpt lat="40.700675" lon="-73.989672"/>
      <trkpt lat="40.700674" lon="-73.989642"/>
      <trkpt lat="40.700647" lon="-73.988866"/>
      <trkpt lat="40.700644" lon="-73.988803"/>
      <trkpt lat="40.700643" lon="-73.988781"/>
      <trkpt lat="40.700643" lon="-73.988754"/>
      <trkpt lat="40.700641" lon="-73.988692"/>
      <trkpt lat="40.700640" lon="-73.988651"/>
      <trkpt lat="40.700639" lon="-73.988611"/>
      <trkpt lat="40.700613" lon="-73.987820"/>
      <trkpt lat="40.700614" lon="-73.987795"/>
      <trkpt lat="40.700615" lon="-73.987745"/>
      <trkpt lat="40.700616" lon="-73.987694"/>
      <trkpt lat="40.700617" lon="-73.987676"/>
      <trkpt lat="40.700604" lon="-73.987211"/>
      <trkpt lat="40.700600" lon="-73.987198"/>
      <trkpt lat="40.700585" lon="-73.987190"/>
      <trkpt lat="40.700308" lon="-73.987040"/>
      <trkpt lat="40.700294" lon="-73.987035"/>
      <trkpt lat="40.700281" lon="-73.987033"/>
      <trkpt lat="40.700243" lon="-73.987034"/>
      <trkpt lat="40.700222" lon="-73.987048"/>
      <trkpt lat="40.700190" lon="-73.987046"/>
      <trkpt lat="40.700172" lon="-73.987045"/>
      <trkpt lat="40.700153" lon="-73.987044"/>
      <trkpt lat="40.700125" lon="-73.987034"/>
      <trkpt lat="40.700097" lon="-73.987020"/>
      <trkpt lat="40.700043" lon="-73.986994"/>
      <trkpt lat="40.700017" lon="-73.986982"/>
      <trkpt lat="40.699966" lon="-73.986963"/>
      <trkpt lat="40.699901" lon="-73.986939"/>
      <trkpt lat="40.699876" lon="-73.986939"/>
      <trkpt lat="40.699875" lon="-73.986912"/>
      <trkpt lat="40.699869" lon="-73.986826"/>
      <trkpt lat="40.699863" lon="-73.986734"/>
      <trkpt lat="40.699863" lon="-73.986718"/>
      <trkpt lat="40.699835" lon="-73.986719"/>
      <trkpt lat="40.699742" lon="-73.986727"/>
      <trkpt lat="40.699513" lon="-73.986743"/>
      <trkpt lat="40.699513" lon="-73.986730"/>
      <trkpt lat="40.699537" lon="-73.986730"/>
      <trkpt lat="40.699580" lon="-73.986727"/>
      <trkpt lat="40.699600" lon="-73.986721"/>
      <trkpt lat="40.699621" lon="-73.986712"/>
      <trkpt lat="40.699636" lon="-73.986696"/>
      <trkpt lat="40.699647" lon="-73.986672"/>
      <trkpt lat="40.699656" lon="-73.986647"/>
      <trkpt lat="40.699660" lon="-73.986638"/>
      <trkpt lat="40.699667" lon="-73.986636"/>
      <trkpt lat="40.699674" lon="-73.986638"/>
      <trkpt lat="40.699694" lon="-73.986649"/>
      <trkpt lat="40.699698" lon="-73.986639"/>
      <trkpt lat="40.699704" lon="-73.986617"/>
      <trkpt lat="40.700142" lon="-73.986863"/>
      <trkpt lat="40.701257" lon="-73.987484"/>
      <trkpt lat="40.702644" lon="-73.988255"/>
      <trkpt lat="40.704595" lon="-73.989349"/>
      <trkpt lat="40.704978" lon="-73.989564"/>
      <trkpt lat="40.704992" lon="-73.989580"/>
      <trkpt lat="40.705003" lon="-73.989602"/>
      <trkpt lat="40.705015" lon="-73.989625"/>
      <trkpt lat="40.705028" lon="-73.989641"/>
      <trkpt lat="40.705044" lon="-73.989652"/>
      <trkpt lat="40.705062" lon="-73.989659"/>
      <trkpt lat="40.705081" lon="-73.989657"/>
      <trkpt lat="40.705101" lon="-73.989649"/>
      <trkpt lat="40.705117" lon="-73.989646"/>
      <trkpt lat="40.705133" lon="-73.989648"/>
      <trkpt lat="40.708677" lon="-73.991632"/>
      <trkpt lat="40.708693" lon="-73.991648"/>
      <trkpt lat="40.708705" lon="-73.991672"/>
      <trkpt lat="40.708721" lon="-73.991694"/>
      <trkpt lat="40.708739" lon="-73.991709"/>
      <trkpt lat="40.708758" lon="-73.991715"/>
      <trkpt lat="40.708786" lon="-73.991717"/>
      <trkpt lat="40.708809" lon="-73.991710"/>
      <trkpt lat="40.708829" lon="-73.991712"/>
      <trkpt lat="40.713596" lon="-73.994372"/>
      <trkpt lat="40.714307" lon="-73.994774"/>
      <trkpt lat="40.714776" lon="-73.995040"/>
      <trkpt lat="40.714822" lon="-73.995072"/>
      <trkpt lat="40.714863" lon="-73.995111"/>
      <trkpt lat="40.715641" lon="-73.995994"/>
      <trkpt lat="40.715657" lon="-73.996024"/>
      <trkpt lat="40.715666" lon="-73.996056"/>
      <trkpt lat="40.715669" lon="-73.996094"/>
      <trkpt lat="40.715663" lon="-73.996135"/>
      <trkpt lat="40.715648" lon="-73.996183"/>
      <trkpt lat="40.715629" lon="-73.996215"/>
      <trkpt lat="40.715602" lon="-73.996247"/>
      <trkpt lat="40.715569" lon="-73.996278"/>
      <trkpt lat="40.715529" lon="-73.996311"/>
      <trkpt lat="40.715497" lon="-73.996335"/>
      <trkpt lat="40.715238" lon="-73.996495"/>
      <trkpt lat="40.715038" lon="-73.996610"/>
      <trkpt lat="40.714986" lon="-73.996642"/>
      <trkpt lat="40.714926" lon="-73.996676"/>
      <trkpt lat="40.714789" lon="-73.996752"/>
      <trkpt lat="40.714748" lon="-73.996776"/>
      <trkpt lat="40.714712" lon="-73.996800"/>
      <trkpt lat="40.714556" lon="-73.996913"/>
      <trkpt lat="40.714501" lon="-73.996954"/>
      <trkpt lat="40.714348" lon="-73.997066"/>
      <trkpt lat="40.714324" lon="-73.997087"/>
      <trkpt lat="40.714279" lon="-73.997142"/>
      <trkpt lat="40.714256" lon="-73.997171"/>
      <trkpt lat="40.714234" lon="-73.997194"/>
      <trkpt lat="40.714199" lon="-73.997226"/>
      <trkpt lat="40.714176" lon="-73.997244"/>
      <trkpt lat="40.714159" lon="-73.997260"/>
      <trkpt lat="40.714081" lon="-73.997321"/>
      <trkpt lat="40.714056" lon="-73.997341"/>
      <trkpt lat="40.713997" lon="-73.997392"/>
      <trkpt lat="40.714019" lon="-73.997416"/>
      <trkpt lat="40.714047" lon="-73.997463"/>
      <trkpt lat="40.714079" lon="-73.997516"/>
      <trkpt lat="40.714077" lon="-73.997547"/>
      <trkpt lat="40.714070" lon="-73.997584"/>
      <trkpt lat="40.714108" lon="-73.997672"/>
      <trkpt lat="40.714076" lon="-73.997699"/>
      <trkpt lat="40.714069" lon="-73.997703"/>
      <trkpt lat="40.714064" lon="-73.997707"/>
      <trkpt lat="40.714055" lon="-73.997717"/>
      <trkpt lat="40.714047" lon="-73.997729"/>
      <trkpt lat="40.714024" lon="-73.997773"/>
      <trkpt lat="40.713953" lon="-73.997913"/>
      <trkpt lat="40.713869" lon="-73.998090"/>
      <trkpt lat="40.713670" lon="-73.998577"/>
      <trkpt lat="40.713657" lon="-73.998614"/>
      <trkpt lat="40.713653" lon="-73.998660"/>
      <trkpt lat="40.713647" lon="-73.998713"/>
      <trkpt lat="40.713647" lon="-73.998758"/>
      <trkpt lat="40.713631" lon="-73.998779"/>
      <trkpt lat="40.713591" lon="-73.998827"/>
      <trkpt lat="40.713539" lon="-73.998892"/>
      <trkpt lat="40.713530" lon="-73.998913"/>
      <trkpt lat="40.713468" lon="-73.999054"/>
      <trkpt lat="40.713454" lon="-73.999097"/>
      <trkpt lat="40.713444" lon="-73.999144"/>
      <trkpt lat="40.713411" lon="-73.999369"/>
      <trkpt lat="40.713293" lon="-74.000284"/>
      <trkpt lat="40.713284" lon="-74.000350"/>
      <trkpt lat="40.713249" lon="-74.000567"/>
      <trkpt lat="40.713246" lon="-74.000586"/>
      <trkpt lat="40.713221" lon="-74.000742"/>
      <trkpt lat="40.713211" lon="-74.000767"/>
      <trkpt lat="40.713188" lon="-74.000838"/>
      <trkpt lat="40.713207" lon="-74.000847"/>
      <trkpt lat="40.713249" lon="-74.000882"/>
      <trkpt lat="40.713289" lon="-74.000918"/>
      <trkpt lat="40.713328" lon="-74.000972"/>
      <trkpt lat="40.713518" lon="-74.001287"/>
      <trkpt lat="40.713463" lon="-74.001409"/>
      <trkpt lat="40.713437" lon="-74.001476"/>
      <trkpt lat="40.713415" lon="-74.001551"/>
      <trkpt lat="40.713147" lon="-74.002553"/>
      <trkpt lat="40.713145" lon="-74.002562"/>
      <trkpt lat="40.713174" lon="-74.002575"/>
      <trkpt lat="40.713118" lon="-74.002807"/>
      <trkpt lat="40.713116" lon="-74.002817"/>
      <trkpt lat="40.713118" lon="-74.002824"/>
      <trkpt lat="40.713103" lon="-74.002832"/>
      <trkpt lat="40.713080" lon="-74.002935"/>
      <trkpt lat="40.713036" lon="-74.003127"/>
      <trkpt lat="40.713029" lon="-74.003162"/>
      <trkpt lat="40.712967" lon="-74.003155"/>
      <trkpt lat="40.712944" lon="-74.003162"/>
      <trkpt lat="40.712857" lon="-74.003229"/>
      <trkpt lat="40.712894" lon="-74.003315"/>
      <trkpt lat="40.713068" lon="-74.003701"/>
      <trkpt lat="40.713133" lon="-74.003838"/>
      <trkpt lat="40.713147" lon="-74.003867"/>
      <trkpt lat="40.713154" lon="-74.003882"/>
      <trkpt lat="40.713167" lon="-74.003910"/>
      <trkpt lat="40.713178" lon="-74.003933"/>
      <trkpt lat="40.713200" lon="-74.003973"/>
      <trkpt lat="40.713224" lon="-74.004019"/>
      <trkpt lat="40.713245" lon="-74.004060"/>
      <trkpt lat="40.713255" lon="-74.004083"/>
      <trkpt lat="40.713248" lon="-74.004094"/>
      <trkpt lat="40.713242" lon="-74.004107"/>
      <trkpt lat="40.713191" lon="-74.004188"/>
      <trkpt lat="40.713141" lon="-74.004267"/>
      <trkpt lat="40.713123" lon="-74.004288"/>
      <trkpt lat="40.712912" lon="-74.004493"/>
      <trkpt lat="40.712912" lon="-74.004540"/>
      <trkpt lat="40.712910" lon="-74.004757"/>
      <trkpt lat="40.712909" lon="-74.004810"/>
      <trkpt lat="40.712909" lon="-74.004885"/>
      <trkpt lat="40.712906" lon="-74.005199"/>
      <trkpt lat="40.712955" lon="-74.005302"/>
      <trkpt lat="40.713027" lon="-74.005452"/>
      <trkpt lat="40.713040" lon="-74.005485"/>
      <trkpt lat="40.713046" lon="-74.005516"/>
      <trkpt lat="40.713047" lon="-74.005547"/>
      <trkpt lat="40.713046" lon="-74.005643"/>
      <trkpt lat="40.713048" lon="-74.005656"/>
      <trkpt lat="40.713053" lon="-74.005671"/>
      <trkpt lat="40.713089" lon="-74.005748"/>
      <trkpt lat="40.713040" lon="-74.005786"/>
    </trkseg>
  </trk>
</gpx>
