<?xml version="1.0" encoding="UTF-8"?>
<gpx version="1.1" creator="SVGmap" xmlns="http://www.topografix.com/GPX/1/1">
  <metadata>
    <name>Chicago Riverwalk</name>
    <desc>Buckingham Fountain, the Lakefront Trail, the Riverwalk and back on Wacker, Monroe and Columbus.</desc>
    <copyright author="OpenStreetMap contributors">
      <license>https://opendatacommons.org/licenses/odbl/</license>
    </copyright>
  </metadata>
  <trk>
    <name>Chicago Riverwalk</name>
    <trkseg>
      <trkpt lat="41.875246" lon="-87.618985"/>
      <trkpt lat="41.875254" lon="-87.618554"/>
      <trkpt lat="41.875592" lon="-87.618231"/>
      <trkpt lat="41.875597" lon="-87.617883"/>
      <trkpt lat="41.875599" lon="-87.617846"/>
      <trkpt lat="41.875603" lon="-87.617765"/>
      <trkpt lat="41.875608" lon="-87.617652"/>
      <trkpt lat="41.875737" lon="-87.617653"/>
      <trkpt lat="41.875815" lon="-87.617654"/>
      <trkpt lat="41.875913" lon="-87.617654"/>
      <trkpt lat="41.875911" lon="-87.617558"/>
      <trkpt lat="41.875913" lon="-87.617498"/>
      <trkpt lat="41.875915" lon="-87.617387"/>
      <trkpt lat="41.875917" lon="-87.617271"/>
      <trkpt lat="41.875920" lon="-87.617130"/>
      <trkpt lat="41.875919" lon="-87.617058"/>
      <trkpt lat="41.875921" lon="-87.616992"/>
      <trkpt lat="41.875923" lon="-87.616875"/>
      <trkpt lat="41.876089" lon="-87.616879"/>
      <trkpt lat="41.876090" lon="-87.616782"/>
      <trkpt lat="41.876092" lon="-87.616683"/>
      <trkpt lat="41.876094" lon="-87.616608"/>
      <trkpt lat="41.876097" lon="-87.616348"/>
      <trkpt lat="41.876220" lon="-87.616349"/>
      <trkpt lat="41.876574" lon="-87.616362"/>
      <trkpt lat="41.876958" lon="-87.616371"/>
      <trkpt lat="41.877044" lon="-87.616373"/>
      <trkpt lat="41.877638" lon="-87.616389"/>
      <trkpt lat="41.877713" lon="-87.616473"/>
      <trkpt lat="41.877804" lon="-87.616477"/>
      <trkpt lat="41.878293" lon="-87.616486"/>
      <trkpt lat="41.878393" lon="-87.616487"/>
      <trkpt lat="41.878812" lon="-87.616499"/>
      <trkpt lat="41.879611" lon="-87.616519"/>
      <trkpt lat="41.879657" lon="-87.616520"/>
      <trkpt lat="41.879765" lon="-87.616523"/>
      <trkpt lat="41.880107" lon="-87.616530"/>
      <trkpt lat="41.880567" lon="-87.616557"/>
      <trkpt lat="41.880575" lon="-87.616559"/>
      <trkpt lat="41.880816" lon="-87.616573"/>
      <trkpt lat="41.880852" lon="-87.616573"/>
      <trkpt lat="41.881254" lon="-87.616578"/>
      <trkpt lat="41.881266" lon="-87.616579"/>
      <trkpt lat="41.881317" lon="-87.616591"/>
      <trkpt lat="41.881361" lon="-87.616602"/>
      <trkpt lat="41.881431" lon="-87.616611"/>
      <trkpt lat="41.881507" lon="-87.616629"/>
      <trkpt lat="41.881709" lon="-87.616586"/>
      <trkpt lat="41.881818" lon="-87.616567"/>
      <trkpt lat="41.881850" lon="-87.616558"/>
      <trkpt lat="41.881960" lon="-87.616508"/>
      <trkpt lat="41.882087" lon="-87.616437"/>
      <trkpt lat="41.882156" lon="-87.616368"/>
      <trkpt lat="41.882241" lon="-87.616279"/>
      <trkpt lat="41.882310" lon="-87.616190"/>
      <trkpt lat="41.882403" lon="-87.616027"/>
      <trkpt lat="41.882451" lon="-87.615914"/>
      <trkpt lat="41.882492" lon="-87.615776"/>
      <trkpt lat="41.882519" lon="-87.615649"/>
      <trkpt lat="41.882529" lon="-87.615558"/>
      <trkpt lat="41.882536" lon="-87.615439"/>
      <trkpt lat="41.882538" lon="-87.615236"/>
      <trkpt lat="41.882539" lon="-87.615130"/>
      <trkpt lat="41.882548" lon="-87.614816"/>
      <trkpt lat="41.882569" lon="-87.614605"/>
      <trkpt lat="41.882603" lon="-87.614385"/>
      <trkpt lat="41.882666" lon="-87.614115"/>
      <trkpt lat="41.882737" lon="-87.613896"/>
      <trkpt lat="41.882829" lon="-87.613681"/>
      <trkpt lat="41.882947" lon="-87.613453"/>
      <trkpt lat="41.883047" lon="-87.613305"/>
      <trkpt lat="41.883167" lon="-87.613155"/>
      <trkpt lat="41.883265" lon="-87.613052"/>
      <trkpt lat="41.883340" lon="-87.612991"/>
      <trkpt lat="41.883364" lon="-87.612972"/>
      <trkpt lat="41.883491" lon="-87.612894"/>
      <trkpt lat="41.883617" lon="-87.612845"/>
      <trkpt lat="41.883669" lon="-87.612832"/>
      <trkpt lat="41.883801" lon="-87.612817"/>
      <trkpt lat="41.883828" lon="-87.612815"/>
      <trkpt lat="41.884107" lon="-87.612811"/>
      <trkpt lat="41.884127" lon="-87.612810"/>
      <trkpt lat="41.884170" lon="-87.612807"/>
      <trkpt lat="41.884198" lon="-87.612806"/>
      <trkpt lat="41.884207" lon="-87.612851"/>
      <trkpt lat="41.884251" lon="-87.613036"/>
      <trkpt lat="41.884361" lon="-87.613035"/>
      <trkpt lat="41.884419" lon="-87.613036"/>
      <trkpt lat="41.884472" lon="-87.613037"/>
      <trkpt lat="41.884471" lon="-87.613055"/>
      <trkpt lat="41.884518" lon="-87.613065"/>
      <trkpt lat="41.884555" lon="-87.613085"/>
      <trkpt lat="41.884651" lon="-87.613042"/>
      <trkpt lat="41.884682" lon="-87.613001"/>
      <trkpt lat="41.884736" lon="-87.612909"/>
      <trkpt lat="41.884775" lon="-87.612839"/>
      <trkpt lat="41.884792" lon="-87.612804"/>
      <trkpt lat="41.884835" lon="-87.612805"/>
      <trkpt lat="41.884968" lon="-87.612804"/>
      <trkpt lat="41.885191" lon="-87.612803"/>
      <trkpt lat="41.885627" lon="-87.612802"/>
      <trkpt lat="41.885867" lon="-87.612803"/>
      <trkpt lat="41.885976" lon="-87.612798"/>
      <trkpt lat="41.886046" lon="-87.612795"/>
      <trkpt lat="41.886061" lon="-87.612794"/>
      <trkpt lat="41.886057" lon="-87.612953"/>
      <trkpt lat="41.886063" lon="-87.613074"/>
      <trkpt lat="41.886101" lon="-87.613091"/>
      <trkpt lat="41.886126" lon="-87.613104"/>
      <trkpt lat="41.886514" lon="-87.613301"/>
      <trkpt lat="41.886576" lon="-87.613355"/>
      <trkpt lat="41.886630" lon="-87.613379"/>
      <trkpt lat="41.886725" lon="-87.613443"/>
      <trkpt lat="41.886775" lon="-87.613467"/>
      <trkpt lat="41.886834" lon="-87.613489"/>
      <trkpt lat="41.886908" lon="-87.613501"/>
      <trkpt lat="41.886965" lon="-87.613506"/>
      <trkpt lat="41.887104" lon="-87.613528"/>
      <trkpt lat="41.887211" lon="-87.613547"/>
      <trkpt lat="41.887276" lon="-87.613567"/>
      <trkpt lat="41.887339" lon="-87.613601"/>
      <trkpt lat="41.887371" lon="-87.613622"/>
      <trkpt lat="41.887420" lon="-87.613662"/>
      <trkpt lat="41.887445" lon="-87.613687"/>
      <trkpt lat="41.887496" lon="-87.613742"/>
      <trkpt lat="41.887537" lon="-87.613781"/>
      <trkpt lat="41.887558" lon="-87.613793"/>
      <trkpt lat="41.887839" lon="-87.613847"/>
      <trkpt lat="41.887871" lon="-87.613833"/>
      <trkpt lat="41.887975" lon="-87.613839"/>
      <trkpt lat="41.887956" lon="-87.613813"/>
      <trkpt lat="41.887916" lon="-87.613760"/>
      <trkpt lat="41.887931" lon="-87.613740"/>
      <trkpt lat="41.887970" lon="-87.613795"/>
      <trkpt lat="41.887974" lon="-87.613802"/>
      <trkpt lat="41.887982" lon="-87.613792"/>
      <trkpt lat="41.888012" lon="-87.613751"/>
      <trkpt lat="41.887881" lon="-87.613558"/>
      <trkpt lat="41.887847" lon="-87.613524"/>
      <trkpt lat="41.887798" lon="-87.613569"/>
      <trkpt lat="41.887804" lon="-87.613699"/>
      <trkpt lat="41.887805" lon="-87.613735"/>
      <trkpt lat="41.887805" lon="-87.613753"/>
      <trkpt lat="41.887807" lon="-87.613812"/>
      <trkpt lat="41.887827" lon="-87.614306"/>
      <trkpt lat="41.887830" lon="-87.614383"/>
      <trkpt lat="41.887825" lon="-87.614415"/>
      <trkpt lat="41.887885" lon="-87.614413"/>
      <trkpt lat="41.887901" lon="-87.614378"/>
      <trkpt lat="41.887936" lon="-87.614371"/>
      <trkpt lat="41.887901" lon="-87.614378"/>
      <trkpt lat="41.887885" lon="-87.614413"/>
      <trkpt lat="41.887825" lon="-87.614415"/>
      <trkpt lat="41.887816" lon="-87.614475"/>
      <trkpt lat="41.887799" lon="-87.614585"/>
      <trkpt lat="41.887803" lon="-87.614808"/>
      <trkpt lat="41.887781" lon="-87.614845"/>
      <trkpt lat="41.887784" lon="-87.614903"/>
      <trkpt lat="41.887798" lon="-87.615162"/>
      <trkpt lat="41.887808" lon="-87.615349"/>
      <trkpt lat="41.887899" lon="-87.615447"/>
      <trkpt lat="41.887915" lon="-87.615788"/>
      <trkpt lat="41.887856" lon="-87.615861"/>
      <trkpt lat="41.887870" lon="-87.616149"/>
      <trkpt lat="41.887881" lon="-87.616345"/>
      <trkpt lat="41.887896" lon="-87.616410"/>
      <trkpt lat="41.887912" lon="-87.616775"/>
      <trkpt lat="41.887918" lon="-87.616904"/>
      <trkpt lat="41.887962" lon="-87.616963"/>
      <trkpt lat="41.887982" lon="-87.617255"/>
      <trkpt lat="41.887991" lon="-87.617394"/>
      <trkpt lat="41.887994" lon="-87.617568"/>
      <trkpt lat="41.887957" lon="-87.617797"/>
      <trkpt lat="41.887921" lon="-87.618028"/>
      <trkpt lat="41.887919" lon="-87.618036"/>
      <trkpt lat="41.887930" lon="-87.618219"/>
      <trkpt lat="41.887944" lon="-87.618472"/>
      <trkpt lat="41.887955" lon="-87.618676"/>
      <trkpt lat="41.887960" lon="-87.618759"/>
      <trkpt lat="41.887980" lon="-87.618783"/>
      <trkpt lat="41.888006" lon="-87.619407"/>
      <trkpt lat="41.888079" lon="-87.619522"/>
      <trkpt lat="41.888147" lon="-87.619627"/>
      <trkpt lat="41.888140" lon="-87.619640"/>
      <trkpt lat="41.888190" lon="-87.620033"/>
      <trkpt lat="41.888206" lon="-87.620052"/>
      <trkpt lat="41.888233" lon="-87.620103"/>
      <trkpt lat="41.888258" lon="-87.620138"/>
      <trkpt lat="41.888275" lon="-87.620288"/>
      <trkpt lat="41.888290" lon="-87.620422"/>
      <trkpt lat="41.888326" lon="-87.620832"/>
      <trkpt lat="41.888332" lon="-87.620918"/>
      <trkpt lat="41.888293" lon="-87.620961"/>
      <trkpt lat="41.888318" lon="-87.621274"/>
      <trkpt lat="41.888376" lon="-87.621352"/>
      <trkpt lat="41.888391" lon="-87.621511"/>
      <trkpt lat="41.888320" lon="-87.621679"/>
      <trkpt lat="41.888341" lon="-87.621829"/>
      <trkpt lat="41.888357" lon="-87.621964"/>
      <trkpt lat="41.888359" lon="-87.621984"/>
      <trkpt lat="41.888394" lon="-87.622272"/>
      <trkpt lat="41.888404" lon="-87.622374"/>
      <trkpt lat="41.888411" lon="-87.622440"/>
      <trkpt lat="41.888413" lon="-87.622460"/>
      <trkpt lat="41.888414" lon="-87.622474"/>
      <trkpt lat="41.888427" lon="-87.622702"/>
      <trkpt lat="41.888433" lon="-87.622895"/>
      <trkpt lat="41.888433" lon="-87.622906"/>
      <trkpt lat="41.888433" lon="-87.622914"/>
      <trkpt lat="41.888437" lon="-87.623170"/>
      <trkpt lat="41.888440" lon="-87.623330"/>
      <trkpt lat="41.888438" lon="-87.623455"/>
      <trkpt lat="41.888437" lon="-87.623479"/>
      <trkpt lat="41.888436" lon="-87.623525"/>
      <trkpt lat="41.888443" lon="-87.623607"/>
      <trkpt lat="41.888468" lon="-87.623767"/>
      <trkpt lat="41.888475" lon="-87.623806"/>
      <trkpt lat="41.888490" lon="-87.623881"/>
      <trkpt lat="41.888550" lon="-87.624183"/>
      <trkpt lat="41.888564" lon="-87.624282"/>
      <trkpt lat="41.888604" lon="-87.624610"/>
      <trkpt lat="41.888608" lon="-87.624646"/>
      <trkpt lat="41.888596" lon="-87.624759"/>
      <trkpt lat="41.888583" lon="-87.624852"/>
      <trkpt lat="41.888546" lon="-87.625001"/>
      <trkpt lat="41.888465" lon="-87.625206"/>
      <trkpt lat="41.888438" lon="-87.625282"/>
      <trkpt lat="41.888393" lon="-87.625424"/>
      <trkpt lat="41.888214" lon="-87.625829"/>
      <trkpt lat="41.888073" lon="-87.625992"/>
      <trkpt lat="41.888082" lon="-87.626036"/>
      <trkpt lat="41.888069" lon="-87.626128"/>
      <trkpt lat="41.888052" lon="-87.626120"/>
      <trkpt lat="41.888041" lon="-87.626116"/>
      <trkpt lat="41.887879" lon="-87.626325"/>
      <trkpt lat="41.887806" lon="-87.626329"/>
      <trkpt lat="41.887728" lon="-87.626416"/>
      <trkpt lat="41.887640" lon="-87.626411"/>
      <trkpt lat="41.887595" lon="-87.626408"/>
      <trkpt lat="41.887536" lon="-87.626366"/>
      <trkpt lat="41.887460" lon="-87.626416"/>
      <trkpt lat="41.887427" lon="-87.626438"/>
      <trkpt lat="41.887382" lon="-87.626488"/>
      <trkpt lat="41.887314" lon="-87.626565"/>
      <trkpt lat="41.887271" lon="-87.626612"/>
      <trkpt lat="41.887249" lon="-87.626641"/>
      <trkpt lat="41.887196" lon="-87.626710"/>
      <trkpt lat="41.887115" lon="-87.626838"/>
      <trkpt lat="41.887064" lon="-87.627020"/>
      <trkpt lat="41.887045" lon="-87.627119"/>
      <trkpt lat="41.887035" lon="-87.627223"/>
      <trkpt lat="41.887034" lon="-87.627418"/>
      <trkpt lat="41.887017" lon="-87.627534"/>
      <trkpt lat="41.887013" lon="-87.627814"/>
      <trkpt lat="41.887013" lon="-87.627844"/>
      <trkpt lat="41.887013" lon="-87.627897"/>
      <trkpt lat="41.887013" lon="-87.628084"/>
      <trkpt lat="41.887014" lon="-87.628139"/>
      <trkpt lat="41.887013" lon="-87.628166"/>
      <trkpt lat="41.887014" lon="-87.628214"/>
      <trkpt lat="41.887013" lon="-87.628383"/>
      <trkpt lat="41.887039" lon="-87.628525"/>
      <trkpt lat="41.887035" lon="-87.629097"/>
      <trkpt lat="41.887013" lon="-87.629222"/>
      <trkpt lat="41.887008" lon="-87.629414"/>
      <trkpt lat="41.887007" lon="-87.629435"/>
      <trkpt lat="41.887007" lon="-87.629528"/>
      <trkpt lat="41.887006" lon="-87.629629"/>
      <trkpt lat="41.887006" lon="-87.629658"/>
      <trkpt lat="41.887006" lon="-87.629670"/>
      <trkpt lat="41.887011" lon="-87.629855"/>
      <trkpt lat="41.887034" lon="-87.629992"/>
      <trkpt lat="41.887031" lon="-87.630564"/>
      <trkpt lat="41.887014" lon="-87.630692"/>
      <trkpt lat="41.887015" lon="-87.630885"/>
      <trkpt lat="41.887015" lon="-87.630909"/>
      <trkpt lat="41.887016" lon="-87.630941"/>
      <trkpt lat="41.887017" lon="-87.631019"/>
      <trkpt lat="41.887019" lon="-87.631098"/>
      <trkpt lat="41.887018" lon="-87.631129"/>
      <trkpt lat="41.887017" lon="-87.631295"/>
      <trkpt lat="41.887030" lon="-87.631295"/>
      <trkpt lat="41.887130" lon="-87.631297"/>
      <trkpt lat="41.887138" lon="-87.631298"/>
      <trkpt lat="41.887138" lon="-87.631384"/>
      <trkpt lat="41.887130" lon="-87.631384"/>
      <trkpt lat="41.887037" lon="-87.631383"/>
      <trkpt lat="41.887030" lon="-87.631383"/>
      <trkpt lat="41.887031" lon="-87.631478"/>
      <trkpt lat="41.887017" lon="-87.631477"/>
      <trkpt lat="41.887016" lon="-87.631841"/>
      <trkpt lat="41.887018" lon="-87.632292"/>
      <trkpt lat="41.887018" lon="-87.632359"/>
      <trkpt lat="41.887018" lon="-87.632391"/>
      <trkpt lat="41.887019" lon="-87.632500"/>
      <trkpt lat="41.887020" lon="-87.632600"/>
      <trkpt lat="41.887020" lon="-87.632645"/>
      <trkpt lat="41.887020" lon="-87.632684"/>
      <trkpt lat="41.887021" lon="-87.632931"/>
      <trkpt lat="41.887041" lon="-87.633021"/>
      <trkpt lat="41.887041" lon="-87.633569"/>
      <trkpt lat="41.887015" lon="-87.633658"/>
      <trkpt lat="41.887015" lon="-87.633836"/>
      <trkpt lat="41.887015" lon="-87.633866"/>
      <trkpt lat="41.887015" lon="-87.633905"/>
      <trkpt lat="41.887015" lon="-87.633979"/>
      <trkpt lat="41.887015" lon="-87.634066"/>
      <trkpt lat="41.887015" lon="-87.634105"/>
      <trkpt lat="41.887014" lon="-87.634295"/>
      <trkpt lat="41.887036" lon="-87.634368"/>
      <trkpt lat="41.887036" lon="-87.635027"/>
      <trkpt lat="41.887015" lon="-87.635127"/>
      <trkpt lat="41.887012" lon="-87.635306"/>
      <trkpt lat="41.887029" lon="-87.635377"/>
      <trkpt lat="41.887008" lon="-87.635395"/>
      <trkpt lat="41.887004" lon="-87.635408"/>
      <trkpt lat="41.886982" lon="-87.635466"/>
      <trkpt lat="41.886957" lon="-87.635537"/>
      <trkpt lat="41.886954" lon="-87.635554"/>
      <trkpt lat="41.887010" lon="-87.635603"/>
      <trkpt lat="41.887002" lon="-87.635619"/>
      <trkpt lat="41.886988" lon="-87.635638"/>
      <trkpt lat="41.886970" lon="-87.635650"/>
      <trkpt lat="41.886957" lon="-87.635655"/>
      <trkpt lat="41.886943" lon="-87.635701"/>
      <trkpt lat="41.886933" lon="-87.635767"/>
      <trkpt lat="41.886941" lon="-87.635783"/>
      <trkpt lat="41.886974" lon="-87.635819"/>
      <trkpt lat="41.886972" lon="-87.635863"/>
      <trkpt lat="41.886969" lon="-87.635939"/>
      <trkpt lat="41.886834" lon="-87.636153"/>
      <trkpt lat="41.886969" lon="-87.635939"/>
      <trkpt lat="41.886972" lon="-87.635863"/>
      <trkpt lat="41.886974" lon="-87.635819"/>
      <trkpt lat="41.886941" lon="-87.635783"/>
      <trkpt lat="41.886933" lon="-87.635767"/>
      <trkpt lat="41.886943" lon="-87.635701"/>
      <trkpt lat="41.886957" lon="-87.635655"/>
      <trkpt lat="41.886970" lon="-87.635650"/>
      <trkpt lat="41.886988" lon="-87.635638"/>
      <trkpt lat="41.887002" lon="-87.635619"/>
      <trkpt lat="41.887010" lon="-87.635603"/>
      <trkpt lat="41.886954" lon="-87.635554"/>
      <trkpt lat="41.886938" lon="-87.635593"/>
      <trkpt lat="41.886857" lon="-87.635793"/>
      <trkpt lat="41.886571" lon="-87.636251"/>
      <trkpt lat="41.886388" lon="-87.636543"/>
      <trkpt lat="41.886239" lon="-87.636772"/>
      <trkpt lat="41.886133" lon="-87.636900"/>
      <trkpt lat="41.886051" lon="-87.636969"/>
      <trkpt lat="41.885931" lon="-87.637029"/>
      <trkpt lat="41.885830" lon="-87.637066"/>
      <trkpt lat="41.885814" lon="-87.637071"/>
      <trkpt lat="41.885800" lon="-87.637074"/>
      <trkpt lat="41.885792" lon="-87.637075"/>
      <trkpt lat="41.885732" lon="-87.637086"/>
      <trkpt lat="41.885699" lon="-87.637092"/>
      <trkpt lat="41.885732" lon="-87.637100"/>
      <trkpt lat="41.885732" lon="-87.637086"/>
      <trkpt lat="41.885732" lon="-87.637057"/>
      <trkpt lat="41.885732" lon="-87.636973"/>
      <trkpt lat="41.885636" lon="-87.636994"/>
      <trkpt lat="41.884831" lon="-87.637065"/>
      <trkpt lat="41.884640" lon="-87.637089"/>
      <trkpt lat="41.884563" lon="-87.637091"/>
      <trkpt lat="41.884524" lon="-87.637088"/>
      <trkpt lat="41.884462" lon="-87.637084"/>
      <trkpt lat="41.884375" lon="-87.637082"/>
      <trkpt lat="41.883510" lon="-87.637061"/>
      <trkpt lat="41.883306" lon="-87.637056"/>
      <trkpt lat="41.883220" lon="-87.637054"/>
      <trkpt lat="41.883110" lon="-87.637051"/>
      <trkpt lat="41.883010" lon="-87.637049"/>
      <trkpt lat="41.882099" lon="-87.637027"/>
      <trkpt lat="41.882017" lon="-87.637025"/>
      <trkpt lat="41.881916" lon="-87.637022"/>
      <trkpt lat="41.881826" lon="-87.637021"/>
      <trkpt lat="41.881449" lon="-87.637015"/>
      <trkpt lat="41.881290" lon="-87.637013"/>
      <trkpt lat="41.880700" lon="-87.637000"/>
      <trkpt lat="41.880628" lon="-87.636998"/>
      <trkpt lat="41.880630" lon="-87.636864"/>
      <trkpt lat="41.880632" lon="-87.636758"/>
      <trkpt lat="41.880633" lon="-87.636639"/>
      <trkpt lat="41.880638" lon="-87.636190"/>
      <trkpt lat="41.880640" lon="-87.636051"/>
      <trkpt lat="41.880643" lon="-87.635807"/>
      <trkpt lat="41.880648" lon="-87.635430"/>
      <trkpt lat="41.880650" lon="-87.635307"/>
      <trkpt lat="41.880652" lon="-87.635161"/>
      <trkpt lat="41.880661" lon="-87.634429"/>
      <trkpt lat="41.880662" lon="-87.634375"/>
      <trkpt lat="41.880662" lon="-87.634312"/>
      <trkpt lat="41.880663" lon="-87.634281"/>
      <trkpt lat="41.880669" lon="-87.633934"/>
      <trkpt lat="41.880670" lon="-87.633814"/>
      <trkpt lat="41.880670" lon="-87.633670"/>
      <trkpt lat="41.880673" lon="-87.633415"/>
      <trkpt lat="41.880674" lon="-87.633398"/>
      <trkpt lat="41.880678" lon="-87.632863"/>
      <trkpt lat="41.880685" lon="-87.632458"/>
      <trkpt lat="41.880686" lon="-87.632331"/>
      <trkpt lat="41.880687" lon="-87.632201"/>
      <trkpt lat="41.880696" lon="-87.631221"/>
      <trkpt lat="41.880700" lon="-87.630980"/>
      <trkpt lat="41.880701" lon="-87.630838"/>
      <trkpt lat="41.880704" lon="-87.630716"/>
      <trkpt lat="41.880708" lon="-87.629999"/>
      <trkpt lat="41.880710" lon="-87.629510"/>
      <trkpt lat="41.880711" lon="-87.629454"/>
      <trkpt lat="41.880712" lon="-87.629359"/>
      <trkpt lat="41.880715" lon="-87.629243"/>
      <trkpt lat="41.880725" lon="-87.628773"/>
      <trkpt lat="41.880727" lon="-87.628637"/>
      <trkpt lat="41.880729" lon="-87.628401"/>
      <trkpt lat="41.880731" lon="-87.628236"/>
      <trkpt lat="41.880737" lon="-87.627915"/>
      <trkpt lat="41.880755" lon="-87.627760"/>
      <trkpt lat="41.880776" lon="-87.627590"/>
      <trkpt lat="41.880784" lon="-87.627022"/>
      <trkpt lat="41.880798" lon="-87.626307"/>
      <trkpt lat="41.880802" lon="-87.626161"/>
      <trkpt lat="41.880806" lon="-87.626000"/>
      <trkpt lat="41.880813" lon="-87.625634"/>
      <trkpt lat="41.880816" lon="-87.625484"/>
      <trkpt lat="41.880817" lon="-87.625419"/>
      <trkpt lat="41.880819" lon="-87.625315"/>
      <trkpt lat="41.880827" lon="-87.624895"/>
      <trkpt lat="41.880832" lon="-87.624633"/>
      <trkpt lat="41.880833" lon="-87.624603"/>
      <trkpt lat="41.880835" lon="-87.624471"/>
      <trkpt lat="41.880838" lon="-87.624244"/>
      <trkpt lat="41.880841" lon="-87.624146"/>
      <trkpt lat="41.880841" lon="-87.624101"/>
      <trkpt lat="41.880847" lon="-87.623462"/>
      <trkpt lat="41.880850" lon="-87.623304"/>
      <trkpt lat="41.880862" lon="-87.622536"/>
      <trkpt lat="41.880833" lon="-87.622418"/>
      <trkpt lat="41.880835" lon="-87.622312"/>
      <trkpt lat="41.880838" lon="-87.622223"/>
      <trkpt lat="41.880870" lon="-87.622084"/>
      <trkpt lat="41.880870" lon="-87.622000"/>
      <trkpt lat="41.880872" lon="-87.621651"/>
      <trkpt lat="41.880876" lon="-87.621008"/>
      <trkpt lat="41.880878" lon="-87.620794"/>
      <trkpt lat="41.880752" lon="-87.620790"/>
      <trkpt lat="41.880602" lon="-87.620785"/>
      <trkpt lat="41.879730" lon="-87.620756"/>
      <trkpt lat="41.878453" lon="-87.620714"/>
      <trkpt lat="41.878341" lon="-87.620710"/>
      <trkpt lat="41.878224" lon="-87.620706"/>
      <trkpt lat="41.877738" lon="-87.620690"/>
      <trkpt lat="41.877385" lon="-87.620677"/>
      <trkpt lat="41.876231" lon="-87.620638"/>
      <trkpt lat="41.876194" lon="-87.620636"/>
      <trkpt lat="41.876200" lon="-87.620422"/>
      <trkpt lat="41.875981" lon="-87.620417"/>
      <trkpt lat="41.875957" lon="-87.620416"/>
      <trkpt lat="41.875802" lon="-87.620413"/>
      <trkpt lat="41.875802" lon="-87.620365"/>
      <trkpt lat="41.875804" lon="-87.620124"/>
      <trkpt lat="41.875806" lon="-87.619716"/>
      <trkpt lat="41.875605" lon="-87.619711"/>
      <trkpt lat="41.875240" lon="-87.619329"/>
      <trkpt lat="41.875246" lon="-87.618985"/>
    </trkseg>
  </trk>
</gpx>
