<?xml version="1.0" encoding="UTF-8"?>
<gpx version="1.1" creator="SVGmap" xmlns="http://www.topografix.com/GPX/1/1">
  <metadata>
    <name>Lombard &amp; Coit Tower</name>
    <desc>Along the Embarcadero to Fisherman's Wharf, down the crooked block of Lombard, up to Coit Tower and down the Filbert Steps.</desc>
    <copyright author="OpenStreetMap contributors">
      <license>https://opendatacommons.org/licenses/odbl/</license>
    </copyright>
  </metadata>
  <trk>
    <name>Lombard &amp; Coit Tower</name>
    <trkseg>
      <trkpt lat="37.796634" lon="-122.395556"/>
      <trkpt lat="37.796693" lon="-122.395460"/>
      <trkpt lat="37.796705" lon="-122.395440"/>
      <trkpt lat="37.796717" lon="-122.395420"/>
      <trkpt lat="37.796768" lon="-122.395336"/>
      <trkpt lat="37.796932" lon="-122.395460"/>
      <trkpt lat="37.797040" lon="-122.395562"/>
      <trkpt lat="37.797333" lon="-122.395829"/>
      <trkpt lat="37.797505" lon="-122.395987"/>
      <trkpt lat="37.797681" lon="-122.396148"/>
      <trkpt lat="37.797965" lon="-122.396406"/>
      <trkpt lat="37.798082" lon="-122.396511"/>
      <trkpt lat="37.798413" lon="-122.396798"/>
      <trkpt lat="37.798592" lon="-122.396976"/>
      <trkpt lat="37.799179" lon="-122.397496"/>
      <trkpt lat="37.799316" lon="-122.397551"/>
      <trkpt lat="37.799405" lon="-122.397631"/>
      <trkpt lat="37.799512" lon="-122.397725"/>
      <trkpt lat="37.800020" lon="-122.398178"/>
      <trkpt lat="37.800586" lon="-122.398687"/>
      <trkpt lat="37.800659" lon="-122.398752"/>
      <trkpt lat="37.800892" lon="-122.398962"/>
      <trkpt lat="37.800928" lon="-122.398994"/>
      <trkpt lat="37.800976" lon="-122.399036"/>
      <trkpt lat="37.801066" lon="-122.399117"/>
      <trkpt lat="37.801567" lon="-122.399566"/>
      <trkpt lat="37.801666" lon="-122.399655"/>
      <trkpt lat="37.801765" lon="-122.399743"/>
      <trkpt lat="37.801819" lon="-122.399792"/>
      <trkpt lat="37.802041" lon="-122.399992"/>
      <trkpt lat="37.802252" lon="-122.400183"/>
      <trkpt lat="37.802547" lon="-122.400448"/>
      <trkpt lat="37.802977" lon="-122.400830"/>
      <trkpt lat="37.803058" lon="-122.400902"/>
      <trkpt lat="37.803421" lon="-122.401237"/>
      <trkpt lat="37.803629" lon="-122.401417"/>
      <trkpt lat="37.804071" lon="-122.401811"/>
      <trkpt lat="37.804166" lon="-122.401904"/>
      <trkpt lat="37.804321" lon="-122.402070"/>
      <trkpt lat="37.804399" lon="-122.402155"/>
      <trkpt lat="37.804439" lon="-122.402204"/>
      <trkpt lat="37.804821" lon="-122.402723"/>
      <trkpt lat="37.804877" lon="-122.402802"/>
      <trkpt lat="37.804919" lon="-122.402861"/>
      <trkpt lat="37.805120" lon="-122.403145"/>
      <trkpt lat="37.805141" lon="-122.403175"/>
      <trkpt lat="37.805199" lon="-122.403258"/>
      <trkpt lat="37.805242" lon="-122.403320"/>
      <trkpt lat="37.805972" lon="-122.404337"/>
      <trkpt lat="37.806024" lon="-122.404409"/>
      <trkpt lat="37.806273" lon="-122.404845"/>
      <trkpt lat="37.806350" lon="-122.404993"/>
      <trkpt lat="37.806690" lon="-122.405631"/>
      <trkpt lat="37.806831" lon="-122.405922"/>
      <trkpt lat="37.806859" lon="-122.405988"/>
      <trkpt lat="37.806917" lon="-122.406125"/>
      <trkpt lat="37.807192" lon="-122.406686"/>
      <trkpt lat="37.807351" lon="-122.407010"/>
      <trkpt lat="37.807406" lon="-122.407140"/>
      <trkpt lat="37.807462" lon="-122.407368"/>
      <trkpt lat="37.807467" lon="-122.407385"/>
      <trkpt lat="37.807531" lon="-122.407645"/>
      <trkpt lat="37.807622" lon="-122.407862"/>
      <trkpt lat="37.807714" lon="-122.408079"/>
      <trkpt lat="37.807783" lon="-122.408244"/>
      <trkpt lat="37.808063" lon="-122.408929"/>
      <trkpt lat="37.808097" lon="-122.409014"/>
      <trkpt lat="37.808123" lon="-122.409112"/>
      <trkpt lat="37.808157" lon="-122.409391"/>
      <trkpt lat="37.808314" lon="-122.410761"/>
      <trkpt lat="37.808319" lon="-122.410794"/>
      <trkpt lat="37.808329" lon="-122.410871"/>
      <trkpt lat="37.808445" lon="-122.411633"/>
      <trkpt lat="37.808475" lon="-122.411812"/>
      <trkpt lat="37.808510" lon="-122.412059"/>
      <trkpt lat="37.808567" lon="-122.412413"/>
      <trkpt lat="37.808586" lon="-122.412529"/>
      <trkpt lat="37.808595" lon="-122.412583"/>
      <trkpt lat="37.808601" lon="-122.412626"/>
      <trkpt lat="37.808604" lon="-122.412707"/>
      <trkpt lat="37.808600" lon="-122.412784"/>
      <trkpt lat="37.808590" lon="-122.412891"/>
      <trkpt lat="37.808578" lon="-122.412989"/>
      <trkpt lat="37.808532" lon="-122.413349"/>
      <trkpt lat="37.808439" lon="-122.414091"/>
      <trkpt lat="37.808427" lon="-122.414183"/>
      <trkpt lat="37.808416" lon="-122.414266"/>
      <trkpt lat="37.808284" lon="-122.415311"/>
      <trkpt lat="37.808278" lon="-122.415364"/>
      <trkpt lat="37.808232" lon="-122.415723"/>
      <trkpt lat="37.808224" lon="-122.415803"/>
      <trkpt lat="37.808213" lon="-122.415916"/>
      <trkpt lat="37.808040" lon="-122.417292"/>
      <trkpt lat="37.808028" lon="-122.417344"/>
      <trkpt lat="37.808012" lon="-122.417387"/>
      <trkpt lat="37.808005" lon="-122.417411"/>
      <trkpt lat="37.808001" lon="-122.417424"/>
      <trkpt lat="37.807993" lon="-122.417463"/>
      <trkpt lat="37.807980" lon="-122.417568"/>
      <trkpt lat="37.807961" lon="-122.417719"/>
      <trkpt lat="37.807797" lon="-122.419018"/>
      <trkpt lat="37.807786" lon="-122.419105"/>
      <trkpt lat="37.807774" lon="-122.419196"/>
      <trkpt lat="37.807623" lon="-122.420404"/>
      <trkpt lat="37.807587" lon="-122.420678"/>
      <trkpt lat="37.807587" lon="-122.420779"/>
      <trkpt lat="37.807514" lon="-122.420766"/>
      <trkpt lat="37.807475" lon="-122.420757"/>
      <trkpt lat="37.807438" lon="-122.420736"/>
      <trkpt lat="37.807403" lon="-122.420721"/>
      <trkpt lat="37.806952" lon="-122.420633"/>
      <trkpt lat="37.806780" lon="-122.420600"/>
      <trkpt lat="37.806666" lon="-122.420564"/>
      <trkpt lat="37.806654" lon="-122.420562"/>
      <trkpt lat="37.806587" lon="-122.420554"/>
      <trkpt lat="37.805813" lon="-122.420402"/>
      <trkpt lat="37.805728" lon="-122.420384"/>
      <trkpt lat="37.805654" lon="-122.420370"/>
      <trkpt lat="37.805257" lon="-122.420288"/>
      <trkpt lat="37.804891" lon="-122.420213"/>
      <trkpt lat="37.804801" lon="-122.420194"/>
      <trkpt lat="37.804722" lon="-122.420179"/>
      <trkpt lat="37.804232" lon="-122.420083"/>
      <trkpt lat="37.803887" lon="-122.420011"/>
      <trkpt lat="37.803789" lon="-122.419991"/>
      <trkpt lat="37.803016" lon="-122.419837"/>
      <trkpt lat="37.802919" lon="-122.419818"/>
      <trkpt lat="37.802865" lon="-122.419806"/>
      <trkpt lat="37.802075" lon="-122.419645"/>
      <trkpt lat="37.802000" lon="-122.419631"/>
      <trkpt lat="37.802118" lon="-122.418791"/>
      <trkpt lat="37.802141" lon="-122.418781"/>
      <trkpt lat="37.802147" lon="-122.418778"/>
      <trkpt lat="37.802153" lon="-122.418773"/>
      <trkpt lat="37.802159" lon="-122.418768"/>
      <trkpt lat="37.802164" lon="-122.418762"/>
      <trkpt lat="37.802169" lon="-122.418755"/>
      <trkpt lat="37.802173" lon="-122.418746"/>
      <trkpt lat="37.802176" lon="-122.418738"/>
      <trkpt lat="37.802178" lon="-122.418727"/>
      <trkpt lat="37.802179" lon="-122.418717"/>
      <trkpt lat="37.802178" lon="-122.418707"/>
      <trkpt lat="37.802178" lon="-122.418702"/>
      <trkpt lat="37.802177" lon="-122.418698"/>
      <trkpt lat="37.802174" lon="-122.418688"/>
      <trkpt lat="37.802171" lon="-122.418679"/>
      <trkpt lat="37.802167" lon="-122.418671"/>
      <trkpt lat="37.802162" lon="-122.418663"/>
      <trkpt lat="37.802156" lon="-122.418656"/>
      <trkpt lat="37.802153" lon="-122.418651"/>
      <trkpt lat="37.802103" lon="-122.418600"/>
      <trkpt lat="37.802098" lon="-122.418593"/>
      <trkpt lat="37.802093" lon="-122.418586"/>
      <trkpt lat="37.802089" lon="-122.418579"/>
      <trkpt lat="37.802086" lon="-122.418570"/>
      <trkpt lat="37.802083" lon="-122.418561"/>
      <trkpt lat="37.802081" lon="-122.418553"/>
      <trkpt lat="37.802080" lon="-122.418543"/>
      <trkpt lat="37.802081" lon="-122.418534"/>
      <trkpt lat="37.802082" lon="-122.418525"/>
      <trkpt lat="37.802085" lon="-122.418516"/>
      <trkpt lat="37.802089" lon="-122.418508"/>
      <trkpt lat="37.802093" lon="-122.418500"/>
      <trkpt lat="37.802099" lon="-122.418494"/>
      <trkpt lat="37.802105" lon="-122.418489"/>
      <trkpt lat="37.802111" lon="-122.418484"/>
      <trkpt lat="37.802118" lon="-122.418480"/>
      <trkpt lat="37.802137" lon="-122.418472"/>
      <trkpt lat="37.802182" lon="-122.418452"/>
      <trkpt lat="37.802189" lon="-122.418449"/>
      <trkpt lat="37.802195" lon="-122.418445"/>
      <trkpt lat="37.802201" lon="-122.418440"/>
      <trkpt lat="37.802206" lon="-122.418434"/>
      <trkpt lat="37.802211" lon="-122.418426"/>
      <trkpt lat="37.802215" lon="-122.418418"/>
      <trkpt lat="37.802218" lon="-122.418409"/>
      <trkpt lat="37.802220" lon="-122.418399"/>
      <trkpt lat="37.802220" lon="-122.418389"/>
      <trkpt lat="37.802220" lon="-122.418379"/>
      <trkpt lat="37.802219" lon="-122.418369"/>
      <trkpt lat="37.802216" lon="-122.418360"/>
      <trkpt lat="37.802213" lon="-122.418351"/>
      <trkpt lat="37.802209" lon="-122.418343"/>
      <trkpt lat="37.802203" lon="-122.418335"/>
      <trkpt lat="37.802198" lon="-122.418329"/>
      <trkpt lat="37.802144" lon="-122.418272"/>
      <trkpt lat="37.802139" lon="-122.418266"/>
      <trkpt lat="37.802135" lon="-122.418259"/>
      <trkpt lat="37.802131" lon="-122.418251"/>
      <trkpt lat="37.802127" lon="-122.418243"/>
      <trkpt lat="37.802125" lon="-122.418234"/>
      <trkpt lat="37.802123" lon="-122.418226"/>
      <trkpt lat="37.802122" lon="-122.418216"/>
      <trkpt lat="37.802122" lon="-122.418207"/>
      <trkpt lat="37.802124" lon="-122.418198"/>
      <trkpt lat="37.802127" lon="-122.418189"/>
      <trkpt lat="37.802130" lon="-122.418181"/>
      <trkpt lat="37.802135" lon="-122.418173"/>
      <trkpt lat="37.802142" lon="-122.418166"/>
      <trkpt lat="37.802192" lon="-122.418130"/>
      <trkpt lat="37.802200" lon="-122.418123"/>
      <trkpt lat="37.802206" lon="-122.418114"/>
      <trkpt lat="37.802210" lon="-122.418104"/>
      <trkpt lat="37.802213" lon="-122.418092"/>
      <trkpt lat="37.802215" lon="-122.418078"/>
      <trkpt lat="37.802218" lon="-122.418052"/>
      <trkpt lat="37.802219" lon="-122.418023"/>
      <trkpt lat="37.802219" lon="-122.417987"/>
      <trkpt lat="37.802218" lon="-122.417956"/>
      <trkpt lat="37.802219" lon="-122.417926"/>
      <trkpt lat="37.802222" lon="-122.417902"/>
      <trkpt lat="37.802225" lon="-122.417869"/>
      <trkpt lat="37.802309" lon="-122.417214"/>
      <trkpt lat="37.802405" lon="-122.416460"/>
      <trkpt lat="37.802407" lon="-122.416442"/>
      <trkpt lat="37.802420" lon="-122.416338"/>
      <trkpt lat="37.802430" lon="-122.416259"/>
      <trkpt lat="37.802436" lon="-122.416210"/>
      <trkpt lat="37.802612" lon="-122.414820"/>
      <trkpt lat="37.802616" lon="-122.414794"/>
      <trkpt lat="37.802568" lon="-122.414785"/>
      <trkpt lat="37.802550" lon="-122.414782"/>
      <trkpt lat="37.802553" lon="-122.414758"/>
      <trkpt lat="37.802560" lon="-122.414683"/>
      <trkpt lat="37.802566" lon="-122.414624"/>
      <trkpt lat="37.802568" lon="-122.414601"/>
      <trkpt lat="37.802558" lon="-122.414579"/>
      <trkpt lat="37.802646" lon="-122.413931"/>
      <trkpt lat="37.802658" lon="-122.413911"/>
      <trkpt lat="37.802664" lon="-122.413875"/>
      <trkpt lat="37.802669" lon="-122.413821"/>
      <trkpt lat="37.802666" lon="-122.413776"/>
      <trkpt lat="37.802677" lon="-122.413697"/>
      <trkpt lat="37.802688" lon="-122.413630"/>
      <trkpt lat="37.802698" lon="-122.413563"/>
      <trkpt lat="37.802713" lon="-122.413471"/>
      <trkpt lat="37.802723" lon="-122.413456"/>
      <trkpt lat="37.802760" lon="-122.413145"/>
      <trkpt lat="37.802756" lon="-122.413089"/>
      <trkpt lat="37.802766" lon="-122.413017"/>
      <trkpt lat="37.802776" lon="-122.412944"/>
      <trkpt lat="37.802955" lon="-122.411531"/>
      <trkpt lat="37.802960" lon="-122.411503"/>
      <trkpt lat="37.802950" lon="-122.411473"/>
      <trkpt lat="37.802960" lon="-122.411392"/>
      <trkpt lat="37.802969" lon="-122.411312"/>
      <trkpt lat="37.802971" lon="-122.411297"/>
      <trkpt lat="37.802988" lon="-122.411287"/>
      <trkpt lat="37.803115" lon="-122.410342"/>
      <trkpt lat="37.803179" lon="-122.409855"/>
      <trkpt lat="37.803167" lon="-122.409853"/>
      <trkpt lat="37.803153" lon="-122.409832"/>
      <trkpt lat="37.803155" lon="-122.409820"/>
      <trkpt lat="37.803165" lon="-122.409751"/>
      <trkpt lat="37.803175" lon="-122.409679"/>
      <trkpt lat="37.803178" lon="-122.409666"/>
      <trkpt lat="37.803189" lon="-122.409655"/>
      <trkpt lat="37.803197" lon="-122.409655"/>
      <trkpt lat="37.803300" lon="-122.408824"/>
      <trkpt lat="37.803373" lon="-122.408198"/>
      <trkpt lat="37.803438" lon="-122.408208"/>
      <trkpt lat="37.803444" lon="-122.408162"/>
      <trkpt lat="37.803512" lon="-122.408175"/>
      <trkpt lat="37.803519" lon="-122.408134"/>
      <trkpt lat="37.803547" lon="-122.407851"/>
      <trkpt lat="37.803575" lon="-122.407588"/>
      <trkpt lat="37.803704" lon="-122.406679"/>
      <trkpt lat="37.803715" lon="-122.406620"/>
      <trkpt lat="37.803656" lon="-122.406608"/>
      <trkpt lat="37.803663" lon="-122.406558"/>
      <trkpt lat="37.803665" lon="-122.406539"/>
      <trkpt lat="37.803668" lon="-122.406505"/>
      <trkpt lat="37.803666" lon="-122.406455"/>
      <trkpt lat="37.803652" lon="-122.406403"/>
      <trkpt lat="37.803629" lon="-122.406359"/>
      <trkpt lat="37.803597" lon="-122.406323"/>
      <trkpt lat="37.803558" lon="-122.406298"/>
      <trkpt lat="37.803518" lon="-122.406284"/>
      <trkpt lat="37.803476" lon="-122.406287"/>
      <trkpt lat="37.803468" lon="-122.406215"/>
      <trkpt lat="37.803462" lon="-122.406203"/>
      <trkpt lat="37.803436" lon="-122.406157"/>
      <trkpt lat="37.803402" lon="-122.406140"/>
      <trkpt lat="37.803383" lon="-122.406184"/>
      <trkpt lat="37.803286" lon="-122.406255"/>
      <trkpt lat="37.803197" lon="-122.406375"/>
      <trkpt lat="37.803103" lon="-122.406478"/>
      <trkpt lat="37.802989" lon="-122.406528"/>
      <trkpt lat="37.802899" lon="-122.406521"/>
      <trkpt lat="37.802799" lon="-122.406468"/>
      <trkpt lat="37.802697" lon="-122.406382"/>
      <trkpt lat="37.802603" lon="-122.406305"/>
      <trkpt lat="37.802550" lon="-122.406267"/>
      <trkpt lat="37.802650" lon="-122.406043"/>
      <trkpt lat="37.802650" lon="-122.406002"/>
      <trkpt lat="37.802604" lon="-122.405985"/>
      <trkpt lat="37.802467" lon="-122.405938"/>
      <trkpt lat="37.802459" lon="-122.405978"/>
      <trkpt lat="37.802405" lon="-122.405960"/>
      <trkpt lat="37.802459" lon="-122.405978"/>
      <trkpt lat="37.802467" lon="-122.405938"/>
      <trkpt lat="37.802604" lon="-122.405985"/>
      <trkpt lat="37.802615" lon="-122.405936"/>
      <trkpt lat="37.802620" lon="-122.405914"/>
      <trkpt lat="37.802626" lon="-122.405886"/>
      <trkpt lat="37.802636" lon="-122.405841"/>
      <trkpt lat="37.802641" lon="-122.405808"/>
      <trkpt lat="37.802641" lon="-122.405806"/>
      <trkpt lat="37.802658" lon="-122.405747"/>
      <trkpt lat="37.802673" lon="-122.405691"/>
      <trkpt lat="37.802681" lon="-122.405663"/>
      <trkpt lat="37.802734" lon="-122.405578"/>
      <trkpt lat="37.802773" lon="-122.405531"/>
      <trkpt lat="37.802888" lon="-122.405483"/>
      <trkpt lat="37.802901" lon="-122.405446"/>
      <trkpt lat="37.802820" lon="-122.405347"/>
      <trkpt lat="37.802805" lon="-122.405327"/>
      <trkpt lat="37.802866" lon="-122.405046"/>
      <trkpt lat="37.802826" lon="-122.405023"/>
      <trkpt lat="37.802825" lon="-122.404867"/>
      <trkpt lat="37.802825" lon="-122.404840"/>
      <trkpt lat="37.802777" lon="-122.404818"/>
      <trkpt lat="37.802737" lon="-122.404781"/>
      <trkpt lat="37.802712" lon="-122.404763"/>
      <trkpt lat="37.802664" lon="-122.404740"/>
      <trkpt lat="37.802655" lon="-122.404735"/>
      <trkpt lat="37.802600" lon="-122.404713"/>
      <trkpt lat="37.802549" lon="-122.404695"/>
      <trkpt lat="37.802556" lon="-122.404651"/>
      <trkpt lat="37.801930" lon="-122.404529"/>
      <trkpt lat="37.801941" lon="-122.404447"/>
      <trkpt lat="37.801943" lon="-122.404433"/>
      <trkpt lat="37.801952" lon="-122.404369"/>
      <trkpt lat="37.801971" lon="-122.404235"/>
      <trkpt lat="37.802049" lon="-122.404250"/>
      <trkpt lat="37.802087" lon="-122.403943"/>
      <trkpt lat="37.802098" lon="-122.403785"/>
      <trkpt lat="37.802107" lon="-122.403728"/>
      <trkpt lat="37.802113" lon="-122.403690"/>
      <trkpt lat="37.802121" lon="-122.403632"/>
      <trkpt lat="37.802131" lon="-122.403567"/>
      <trkpt lat="37.802138" lon="-122.403533"/>
      <trkpt lat="37.802041" lon="-122.403438"/>
      <trkpt lat="37.802054" lon="-122.403347"/>
      <trkpt lat="37.802066" lon="-122.403343"/>
      <trkpt lat="37.802102" lon="-122.403353"/>
      <trkpt lat="37.802107" lon="-122.403350"/>
      <trkpt lat="37.802109" lon="-122.403340"/>
      <trkpt lat="37.802104" lon="-122.403333"/>
      <trkpt lat="37.802082" lon="-122.403328"/>
      <trkpt lat="37.802069" lon="-122.403321"/>
      <trkpt lat="37.802071" lon="-122.403306"/>
      <trkpt lat="37.802077" lon="-122.403262"/>
      <trkpt lat="37.802101" lon="-122.403089"/>
      <trkpt lat="37.802114" lon="-122.402980"/>
      <trkpt lat="37.802180" lon="-122.402993"/>
      <trkpt lat="37.802114" lon="-122.402980"/>
      <trkpt lat="37.802125" lon="-122.402888"/>
      <trkpt lat="37.801344" lon="-122.402729"/>
      <trkpt lat="37.801297" lon="-122.402719"/>
      <trkpt lat="37.801259" lon="-122.402711"/>
      <trkpt lat="37.800408" lon="-122.402538"/>
      <trkpt lat="37.800327" lon="-122.402521"/>
      <trkpt lat="37.800256" lon="-122.402507"/>
      <trkpt lat="37.799483" lon="-122.402349"/>
      <trkpt lat="37.799398" lon="-122.402332"/>
      <trkpt lat="37.799324" lon="-122.402317"/>
      <trkpt lat="37.799123" lon="-122.402276"/>
      <trkpt lat="37.798554" lon="-122.402160"/>
      <trkpt lat="37.798449" lon="-122.402138"/>
      <trkpt lat="37.798360" lon="-122.402119"/>
      <trkpt lat="37.798150" lon="-122.402080"/>
      <trkpt lat="37.797591" lon="-122.401974"/>
      <trkpt lat="37.797521" lon="-122.401961"/>
      <trkpt lat="37.797465" lon="-122.401950"/>
      <trkpt lat="37.797328" lon="-122.401922"/>
      <trkpt lat="37.797237" lon="-122.401903"/>
      <trkpt lat="37.797081" lon="-122.401870"/>
      <trkpt lat="37.796712" lon="-122.401793"/>
      <trkpt lat="37.796645" lon="-122.401781"/>
      <trkpt lat="37.796590" lon="-122.401770"/>
      <trkpt lat="37.795830" lon="-122.401613"/>
      <trkpt lat="37.795736" lon="-122.401594"/>
      <trkpt lat="37.795725" lon="-122.401694"/>
      <trkpt lat="37.795736" lon="-122.401594"/>
      <trkpt lat="37.795830" lon="-122.401613"/>
      <trkpt lat="37.795885" lon="-122.401179"/>
      <trkpt lat="37.795892" lon="-122.401130"/>
      <trkpt lat="37.795900" lon="-122.401066"/>
      <trkpt lat="37.795954" lon="-122.400648"/>
      <trkpt lat="37.795969" lon="-122.400536"/>
      <trkpt lat="37.795982" lon="-122.400433"/>
      <trkpt lat="37.796005" lon="-122.400270"/>
      <trkpt lat="37.796069" lon="-122.399751"/>
      <trkpt lat="37.796182" lon="-122.398849"/>
      <trkpt lat="37.796252" lon="-122.398293"/>
      <trkpt lat="37.796265" lon="-122.398189"/>
      <trkpt lat="37.796279" lon="-122.398078"/>
      <trkpt lat="37.796400" lon="-122.397123"/>
      <trkpt lat="37.796409" lon="-122.397097"/>
      <trkpt lat="37.796434" lon="-122.397028"/>
      <trkpt lat="37.796467" lon="-122.396936"/>
      <trkpt lat="37.796496" lon="-122.396855"/>
      <trkpt lat="37.796502" lon="-122.396837"/>
      <trkpt lat="37.796579" lon="-122.396565"/>
      <trkpt lat="37.796602" lon="-122.396471"/>
      <trkpt lat="37.796620" lon="-122.396359"/>
      <trkpt lat="37.796650" lon="-122.396123"/>
      <trkpt lat="37.796684" lon="-122.395868"/>
      <trkpt lat="37.796698" lon="-122.395842"/>
      <trkpt lat="37.796739" lon="-122.395816"/>
      <trkpt lat="37.796719" lon="-122.395788"/>
      <trkpt lat="37.796698" lon="-122.395759"/>
      <trkpt lat="37.796623" lon="-122.395693"/>
      <trkpt lat="37.796628" lon="-122.395634"/>
      <trkpt lat="37.796634" lon="-122.395556"/>
    </trkseg>
  </trk>
</gpx>
